[{"OBJECT_NAME":"STARLINK-5825","OBJECT_ID":"2023-028AU","EPOCH":"2026-03-09T21:39:59.898240","MEAN_MOTION":14.98334631,"ECCENTRICITY":0.00032006,"INCLINATION":70.0011,"RA_OF_ASC_NODE":204.0994,"ARG_OF_PERICENTER":268.1655,"MEAN_ANOMALY":91.9138,"EPHEMERIS_TYPE":0,"CLASSIFICATION_TYPE":"U","NORAD_CAT_ID":55783,"ELEMENT_SET_NO":999,"REV_AT_EPOCH":16705,"BSTAR":-0.00011912942,"MEAN_MOTION_DOT":-1.514e-5,"MEAN_MOTION_DDOT":0},{"OBJECT_NAME":"SHIYAN-24C 03","OBJECT_ID":"2023-206C","EPOCH":"2026-03-09T21:23:43.281888","MEAN_MOTION":14.97896938,"ECCENTRICITY":0.0002411,"INCLINATION":97.3969,"RA_OF_ASC_NODE":41.7507,"ARG_OF_PERICENTER":66.6237,"MEAN_ANOMALY":293.524,"EPHEMERIS_TYPE":0,"CLASSIFICATION_TYPE":"U","NORAD_CAT_ID":58652,"ELEMENT_SET_NO":999,"REV_AT_EPOCH":12043,"BSTAR":0.00011928,"MEAN_MOTION_DOT":1.35e-5,"MEAN_MOTION_DDOT":0}]
